0 SL-14 R/B
1 22627U 93024B   20143.65568321  .00000060  00000-0  50055-5 0  9999
2 22627  82.5226 186.0043 0025005  71.9774 288.4160 14.78172453460275
0 SL-14 R/B
1 22627U 93024B   20142.70798628 +.00000074 +00000-0 +69736-5 0  9990
2 22627 082.5227 186.8842 0025034 074.8917 285.5062 14.78172375460142
0 SL-16 DEB
1 22645U 93016AF  20142.86490316 +.00000070 +00000-0 +93947-4 0  9997
2 22645 070.9870 095.9526 0175093 299.0876 094.0804 13.82903174365472
0 SL-16 DEB
1 22645U 93016AF  20142.94171164 +.00000061 +00000-0 +86573-4 0  9990
2 22645 070.9870 095.7995 0175088 298.9791 116.4654 13.82903134365487
0 COSMOS 2245
1 22646U 93030A   20142.90607794 -.00000002 +00000-0 -70362-4 0  9992
2 22646 082.5829 288.2739 0011217 257.9125 259.5537 12.63999590246942
0 COSMOS 2246
1 22647U 93030B   20142.90789234 -.00000004 +00000-0 -80495-4 0  9993
2 22647 082.5832 293.5978 0009369 268.8636 091.1382 12.63567996246493
0 COSMOS 2246
1 22647U 93030B   20142.90789234 -.00000004  00000-0 -80495-4 0  9993
2 22647  82.5832 293.5978 0009369 268.8636  91.1382 12.63567996246707
0 COSMOS 2247
1 22648U 93030C   20142.89409288 +.00000001 +00000-0 -50166-4 0  9998
2 22648 082.5774 292.9640 0007545 290.1205 182.3136 12.63199516246121
0 COSMOS 2247
1 22648U 93030C   20143.43539562  .00000004  00000-0 -36669-4 0  9993
2 22648  82.5774 292.6179 0007538 288.7192 124.0707 12.63199536246416
0 COSMOS 2248
1 22649U 93030D   20142.97596332  .00000008  00000-0 -13983-4 0  9998
2 22649  82.5763 289.0749 0008621 285.9477  74.0664 12.63454860246608
0 COSMOS 2248
1 22649U 93030D   20142.89677561 -.00000009 +00000-0 -10535-3 0  9994
2 22649 082.5766 289.1253 0008592 286.1778 073.8367 12.63454866246430
0 COSMOS 2249
1 22650U 93030E   20142.93924625 -.00000002 +00000-0 -68324-4 0  9990
2 22650 082.5833 298.9694 0006876 291.4397 240.5267 12.63120494246094
0 COSMOS 2250
1 22651U 93030F   20142.90322216 +.00000007 +00000-0 -20946-4 0  9998
2 22651 082.5809 297.0552 0008786 280.2203 234.6306 12.63073972246091
0 COSMOS 2250
1 22651U 93030F   20143.05795288 +.00000005 +00000-0 -28694-4 0  9994
2 22651 082.5809 296.9563 0008786 279.8326 218.2380 12.63073964246115
0 SL-14 R/B
1 22652U 93030G   20142.96283170 -.00000005 +00000-0 -83559-4 0  9998
2 22652 082.5847 299.4760 0007106 292.4172 187.3900 12.63146552246107
0 SL-14 R/B
1 22652U 93030G   20142.89228650 -.00000003 +00000-0 -75319-4 0  9995
2 22652 082.5847 299.5211 0007106 292.6012 226.5740 12.63146555246093
0 ARIANE 42L R/B
1 22655U 93031C   20142.73804787 +.00000800 +00000-0 +36981-3 0  9997
2 22655 005.0806 087.3763 6847612 033.1935 355.0903 02.82329134251088
0 ARIANE 42L R/B
1 22655U 93031C   20143.09218573  .00000723  00000-0  34584-3 0  9990
2 22655   5.0814  87.1940 6847652  33.5613 355.0299  2.82329694251071
0 NAVSTAR 32 (USA 91)
1 22657U 93032A   20142.91803535 -.00000077 +00000-0 +00000-0 0  9997
2 22657 055.1264 359.1951 0041503 048.4138 130.5669 01.87696721192280
0 SL-16 DEB
1 22665U 92093JA  20142.96128765 +.00000052 +00000-0 +59468-4 0  9990
2 22665 071.0792 243.0737 0070992 224.3985 256.7322 14.05227356390155
0 SL-16 DEB
1 22665U 92093JA  20143.29925517  .00000072  00000-0  71476-4 0  9992
2 22665  71.0792 242.3781 0070984 223.8996 166.4368 14.05227433390224
0 TITAN 34D TRANSTAGE DEB
1 22668U 88077D   20142.35415210 +.00001269 +00000-0 +11055-2 0  9996
2 22668 026.3866 199.3294 7382298 250.9566 021.6159 02.12709743007631
0 ARIANE 42P+ DEB
1 22670U 92072C   20142.63031168 +.00001161 +00000-0 +29457-3 0  9993
2 22670 006.7376 232.1486 6260310 332.3584 005.2129 03.64933318677098
0 MOLNIYA 1-86
1 22671U 93035A   20142.89351638 -.00000086 +00000-0 -85809-4 0  9990
2 22671 063.1623 314.2698 4829185 356.3168 001.1137 05.62601908309735
0 MOLNIYA 1-86
1 22671U 93035A   20143.78224120 -.00000086  00000-0 -81992-4 0  9993
2 22671  63.1617 313.7578 4829254 356.3291   1.1053  5.62601865309732
0 COSMOS 2251
1 22675U 93036A   20143.78198742 -.00000011  00000-0  56703-5 0  9998
2 22675  74.0413  62.1832 0026108 280.1113  79.7093 14.32554134407332
0 COSMOS 2251
1 22675U 93036A   20142.87415361 -.00000015 +00000-0 +39600-5 0  9997
2 22675 074.0412 063.8400 0026102 281.9074 077.9151 14.32554115406916
0 COSMOS 2251
1 22675U 93036A   20143.01382037 -.00000015 +00000-0 +39911-5 0  9992
2 22675 074.0413 063.5851 0026105 281.6305 078.1916 14.32554093406930
0 SL-8 R/B
1 22676U 93036B   20143.10614529 +.00000043 +00000-0 +24592-4 0  9995
2 22676 074.0444 024.9805 0018458 153.0203 207.1913 14.34007584408423
0 SL-8 R/B
1 22676U 93036B   20142.75733153 +.00000041 +00000-0 +23889-4 0  9996
2 22676 074.0444 025.6185 0018480 153.7477 206.4616 14.34007560408377
0 COSMOS 2252
1 22687U 93038A   20142.59398733 +.00000029 +00000-0 +10202-3 0  9993
2 22687 082.5839 204.7810 0006991 342.0159 173.2070 12.63259620240511
0 COSMOS 2252
1 22687U 93038A   20143.12708635 +.00000033 +00000-0 +12192-3 0  9994
2 22687 082.5838 204.4406 0006969 340.7287 077.6770 12.63259654240588
0 COSMOS 2253
1 22688U 93038B   20142.71734177 +.00000023 +00000-0 +71861-4 0  9997
2 22688 082.5891 228.6574 0010844 353.3891 006.7055 12.61527686238891
0 COSMOS 2254
1 22689U 93038C   20142.87356321 +.00000012 +00000-0 +64237-5 0  9994
2 22689 082.5814 185.0793 0010850 323.9534 097.5020 12.64846014241818
0 COSMOS 2254
1 22689U 93038C   20143.59712480  .00000012  00000-0  83503-5 0  9993
2 22689  82.5813 184.6157 0010825 322.1566 152.3501 12.64846018242554
0 COSMOS 2254
1 22689U 93038C   20143.10337008 +.00000012 +00000-0 +80541-5 0  9998
2 22689 082.5814 184.9321 0010841 323.3904 063.9550 12.64846015241847
0 COSMOS 2255
1 22690U 93038D   20142.78997653 +.00000013 +00000-0 +15068-4 0  9993
2 22690 082.5860 205.9237 0005120 353.8605 143.4239 12.63264598241241
0 COSMOS 2255
1 22690U 93038D   20142.78997653  .00000013  00000-0  15068-4 0  9993
2 22690  82.5860 205.9237 0005120 353.8605 143.4239 12.63264598241500
0 COSMOS 2256
1 22691U 93038E   20142.67390535 +.00000011 +00000-0 +70879-6 0  9999
2 22691 082.5761 191.3924 0006684 359.6925 118.0475 12.63877139241777
0 COSMOS 2256
1 22691U 93038E   20143.13440918 +.00000015 +00000-0 +25976-4 0  9992
2 22691 082.5760 191.0977 0006664 358.6550 053.3119 12.63877173241833
0 COSMOS 2257
1 22692U 93038F   20143.12776424 +.00000033 +00000-0 +12577-3 0  9998
2 22692 082.5804 213.0357 0007328 346.0249 014.0638 12.62197192240209
0 COSMOS 2257
1 22692U 93038F   20142.81069867 +.00000030 +00000-0 +10746-3 0  9992
2 22692 082.5804 213.2379 0007341 346.7802 013.3095 12.62197181240164
0 SL-14 R/B
1 22693U 93038G   20142.89082674 +.00000007 +00000-0 -21286-4 0  9999
2 22693 082.5830 303.6632 0045204 238.5846 275.2523 12.54811241232927
0 SL-14 R/B
1 22693U 93038G   20143.04549686  .00000006  00000-0 -25497-4 0  9995
2 22693  82.5830 303.5659 0045205 238.2332 253.9526 12.54811252233203
0 HGS 4 (GALAXY 4)
1 22694U 93039A   20142.92684887 -.00000091 +00000-0 +00000-0 0  9999
2 22694 014.5727 012.7535 0008250 287.8720 346.6155 01.00266387096764
0 HGS 4 (GALAXY 4)
1 22694U 93039A   20143.15348512 -.00000090  00000-0  00000+0 0  9995
2 22694  14.5727  12.7515 0008242 287.8205  68.4770  1.00266417 96767
0 RADCAL
1 22698U 93041A   20143.63211060  .00000051  00000-0  16241-4 0  9997
2 22698  89.5693 180.2786 0087157 233.1702 126.1474 14.23418708397087
0 RADCAL
1 22698U 93041A   20143.14001957 +.00000053 +00000-0 +17204-4 0  9997
2 22698 089.5693 180.3026 0087115 234.8144 124.4868 14.23418688396755
0 RADCAL
1 22698U 93041A   20142.78852606 +.00000053 +00000-0 +17306-4 0  9994
2 22698 089.5694 180.3198 0087086 235.9895 123.3003 14.23418646396706
0 SCOUT G-1 R/B
1 22699U 93041B   20142.58640665 +.00000090 +00000-0 +31782-4 0  9998
2 22699 089.5669 178.6672 0086692 201.0343 158.7277 14.25039792397327
0 SCOUT G-1 R/B
1 22699U 93041B   20143.07794027 +.00000092 +00000-0 +32329-4 0  9995
2 22699 089.5668 178.6429 0086754 199.4067 160.3817 14.25039883397395
0 NAVSTAR 33 (USA 92)
1 22700U 93042A   20142.59393425 -.00000006 +00000-0 +00000-0 0  9995
2 22700 055.0005 246.3314 0008919 343.5719 017.4221 01.89432326195123
0 SCOUT G-1 DEB
1 22706U 93041C   20142.69850784 +.00000144 +00000-0 +40008-4 0  9995
2 22706 089.3023 238.9026 0027886 324.8762 196.5735 14.41536947410013
0 SCOUT G-1 DEB
1 22706U 93041C   20143.02476885 +.00000147 +00000-0 +40632-4 0  9995
2 22706 089.3023 238.8759 0027849 323.7244 089.7696 14.41537037410062
0 SCOUT G-1 DEB
1 22707U 93041D   20143.10137721 +.00000081 +00000-0 +27714-4 0  9991
2 22707 090.1317 262.4007 0145405 005.6498 354.6291 14.23675415393781
0 HISPASAT 1B
1 22723U 93048A   20143.05304247 -.00000117  00000-0  00000+0 0  9994
2 22723  11.9240  28.5202 0008692 351.9309 237.9118  0.99729274 97724
0 ARIANE 44L+ R/B
1 22725U 93048C   20143.04686113  .00000108  00000-0  32375-3 0  9993
2 22725   7.1022  32.0098 6972680 186.5805 153.5184  2.64397799253479
0 ARIANE 44L+ R/B
1 22725U 93048C   20142.67012504 +.00000050 +00000-0 +32443-3 0  9990
2 22725 007.1014 032.1912 6972708 186.2192 154.9321 02.64397441253486
0 IABS R/B
1 22738U 93046C   20142.18381080 -.00000174 +00000-0 +00000-0 0  9995
2 22738 014.3198 355.4778 0087567 079.9451 281.0091 01.02137745003674
0 NOAA 13
1 22739U 93050A   20142.92667633 -.00000019 +00000-0 +11486-4 0  9996
2 22739 098.4568 152.2295 0009372 359.3271 000.7888 14.12754578380233
0 NOAA 13
1 22739U 93050A   20143.06832343 -.00000022 +00000-0 +10267-4 0  9994
2 22739 098.4568 152.3633 0009363 358.9177 001.1975 14.12754592380250
0 SL-6 R/B(2)
1 22744U 93051D   20142.32774328 -.00000650 +00000-0 +00000-0 0  9994
2 22744 065.8541 117.8767 6585380 138.8316 296.4345 02.05615228199634
